CTC1_L_00637007-03
1 10062U 25755LR  26075.70039352  .00000000  00000+0  00000-0 0  9991
2 10062  70.0000 180.0000 0000000   0.0000 144.0000  3.95927803    13
CTC1_L_00637007-04
1 10063U 25428TW  26075.70039352  .00000000  00000+0  00000-0 0  9999
2 10063  70.0000 180.0000 0000000   0.0000 180.0000  3.95927803    14
CTC1_L_00637007-05
1 10064U 23770SX  26075.70039352  .00000000  00000+0  00000-0 0  9998
2 10064  70.0000 180.0000 0000000   0.0000 216.0000  3.95927803    15
CTC1_L_00637007-06
1 10065U 22817XE  26075.70039352  .00000000  00000+0  00000-0 0  9990
2 10065  70.0000 180.0000 0000000   0.0000 252.0000  3.95927803    16
CTC1_L_00637007-07
1 10066U 26370XS  26075.70039352  .00000000  00000+0  00000-0 0  9999
2 10066  70.0000 180.0000 0000000   0.0000 288.0000  3.95927803    16
CTC1_L_00637007-08
1 10067U 26820ZH  26075.70039352  .00000000  00000+0  00000-0 0  9990
2 10067  70.0000 180.0000 0000000   0.0000 324.0000  3.95927803    18
CTC1_L_00637007-09
1 10068U 24535UZ  26075.70039352  .00000000  00000+0  00000-0 0  9992
2 10068  70.0000 180.0000 0000000   0.0000   0.0000  3.95927803    10
CTC1_L_00637007-10
1 10069U 26751EN  26075.70039352  .00000000  00000+0  00000-0 0  9995
2 10069  70.0000 180.0000 0000000   0.0000  36.0000  3.95927803    10
CTC1_L_00637008-01
1 10070U 23292KY  26075.70039352  .00000000  00000+0  00000-0 0  9994
2 10070  70.0000 210.0000 0000000   0.0000  84.0000  3.95927803    19
CTC1_L_00637008-02
1 10071U 26850JG  26075.70039352  .00000000  00000+0  00000-0 0  9998
2 10071  70.0000 210.0000 0000000   0.0000 120.0000  3.95927803    11
CTC1_L_00637008-03
1 10072U 24812BS  26075.70039352  .00000000  00000+0  00000-0 0  9995
2 10072  70.0000 210.0000 0000000   0.0000 156.0000  3.95927803    11
CTC1_L_00637008-04
1 10073U 22559ZR  26075.70039352  .00000000  00000+0  00000-0 0  9992
2 10073  70.0000 210.0000 0000000   0.0000 192.0000  3.95927803    12
CTC1_L_00637008-05
1 10074U 22511S   26075.70039352  .00000000  00000+0  00000-0 0  9991
2 10074  70.0000 210.0000 0000000   0.0000 228.0000  3.95927803    13
CTC1_L_00637008-06
1 10075U 26876II  26075.70039352  .00000000  00000+0  00000-0 0  9990
2 10075  70.0000 210.0000 0000000   0.0000 264.0000  3.95927803    14
CTC1_L_00637008-07
1 10076U 22733XI  26075.70039352  .00000000  00000+0  00000-0 0  9999
2 10076  70.0000 210.0000 0000000   0.0000 300.0000  3.95927803    16
CTC1_L_00637008-08
1 10077U 26363MR  26075.70039352  .00000000  00000+0  00000-0 0  9993
2 10077  70.0000 210.0000 0000000   0.0000 336.0000  3.95927803    16
CTC1_L_00637008-09
1 10078U 23986QZ  26075.70039352  .00000000  00000+0  00000-0 0  9992
2 10078  70.0000 210.0000 0000000   0.0000  12.0000  3.95927803    18
CTC1_L_00637008-10
1 10079U 24943YE  26075.70039352  .00000000  00000+0  00000-0 0  9997
2 10079  70.0000 210.0000 0000000   0.0000  48.0000  3.95927803    18
CTC1_L_00637009-01
1 10080U 25981HE  26075.70039352  .00000000  00000+0  00000-0 0  9992
2 10080  70.0000 240.0000 0000000   0.0000  96.0000  3.95927803    16
CTC1_L_00637009-02
1 10081U 24547ZZ  26075.70039352  .00000000  00000+0  00000-0 0  9990
2 10081  70.0000 240.0000 0000000   0.0000 132.0000  3.95927803    18
CTC1_L_00637009-03
1 10082U 23673HP  26075.70039352  .00000000  00000+0  00000-0 0  9990
2 10082  70.0000 240.0000 0000000   0.0000 168.0000  3.95927803    18
CTC1_L_00637009-04
1 10083U 24374IF  26075.70039352  .00000000  00000+0  00000-0 0  9990
2 10083  70.0000 240.0000 0000000   0.0000 204.0000  3.95927803    10
CTC1_L_00637009-05
1 10084U 24967J   26075.70039352  .00000000  00000+0  00000-0 0  9999
2 10084  70.0000 240.0000 0000000   0.0000 240.0000  3.95927803    11
CTC1_L_00637009-06
1 10085U 22779XI  26075.70039352  .00000000  00000+0  00000-0 0  9999
2 10085  70.0000 240.0000 0000000   0.0000 276.0000  3.95927803    11
CTC1_L_00637009-07
1 10086U 24367VP  26075.70039352  .00000000  00000+0  00000-0 0  9995
2 10086  70.0000 240.0000 0000000   0.0000 312.0000  3.95927803    13
CTC1_L_00637009-08
1 10087U 25814AY  26075.70039352  .00000000  00000+0  00000-0 0  9994
2 10087  70.0000 240.0000 0000000   0.0000 348.0000  3.95927803    13
CTC1_L_00637009-09
1 10088U 26943YB  26075.70039352  .00000000  00000+0  00000-0 0  9999
2 10088  70.0000 240.0000 0000000   0.0000  24.0000  3.95927803    15
CTC1_L_00637009-10
1 10089U 22143CX  26075.70039352  .00000000  00000+0  00000-0 0  9998
2 10089  70.0000 240.0000 0000000   0.0000  60.0000  3.95927803    16
CTC1_L_00637010-01
1 10090U 23627XX  26075.70039352  .00000000  00000+0  00000-0 0  9998
2 10090  70.0000 270.0000 0000000   0.0000 108.0000  3.95927803    14
CTC1_L_00637010-02
1 10091U 24553NH  26075.70039352  .00000000  00000+0  00000-0 0  9998
2 10091  70.0000 270.0000 0000000   0.0000 144.0000  3.95927803    15
CTC1_L_00637010-03
1 10092U 23334YN  26075.70039352  .00000000  00000+0  00000-0 0  9995
2 10092  70.0000 270.0000 0000000   0.0000 180.0000  3.95927803    16
CTC1_L_00637010-04
1 10093U 24733MF  26075.70039352  .00000000  00000+0  00000-0 0  9990
2 10093  70.0000 270.0000 0000000   0.0000 216.0000  3.95927803    17
CTC1_L_00637010-05
1 10094U 22693ZZ  26075.70039352  .00000000  00000+0  00000-0 0  9994
2 10094  70.0000 270.0000 0000000   0.0000 252.0000  3.95927803    18
CTC1_L_00637010-06
1 10095U 24463HR  26075.70039352  .00000000  00000+0  00000-0 0  9992
2 10095  70.0000 270.0000 0000000   0.0000 288.0000  3.95927803    18
CTC1_L_00637010-07
1 10096U 22129EQ  26075.70039352  .00000000  00000+0  00000-0 0  9990
2 10096  70.0000 270.0000 0000000   0.0000 324.0000  3.95927803    10
CTC1_L_00637010-08
1 10097U 26738FT  26075.70039352  .00000000  00000+0  00000-0 0  9991
2 10097  70.0000 270.0000 0000000   0.0000   0.0000  3.95927803    12
CTC1_L_00637010-09
1 10098U 24097PJ  26075.70039352  .00000000  00000+0  00000-0 0  9998
2 10098  70.0000 270.0000 0000000   0.0000  36.0000  3.95927803    12
CTC1_L_00637010-10
1 10099U 22258IV  26075.70039352  .00000000  00000+0  00000-0 0  9996
2 10099  70.0000 270.0000 0000000   0.0000  72.0000  3.95927803    13
CTC1_L_00637011-01
1 10100U 26967XU  26075.70039352  .00000000  00000+0  00000-0 0  9990
2 10100  70.0000 300.0000 0000000   0.0000 120.0000  3.95927803    14
CTC1_L_00637011-02
1 10101U 26886TH  26075.70039352  .00000000  00000+0  00000-0 0  9991
2 10101  70.0000 300.0000 0000000   0.0000 156.0000  3.95927803    14
CTC1_L_00637011-03
1 10102U 24341JA  26075.70039352  .00000000  00000+0  00000-0 0  9996
2 10102  70.0000 300.0000 0000000   0.0000 192.0000  3.95927803    15
CTC1_L_00637011-04
1 10103U 23129WE  26075.70039352  .00000000  00000+0  00000-0 0  9990
2 10103  70.0000 300.0000 0000000   0.0000 228.0000  3.95927803    16
CTC1_L_00637011-05
1 10104U 23120LB  26075.70039352  .00000000  00000+0  00000-0 0  9992
2 10104  70.0000 300.0000 0000000   0.0000 264.0000  3.95927803    17
CTC1_L_00637011-06
1 10105U 24449QD  26075.70039352  .00000000  00000+0  00000-0 0  9998
2 10105  70.0000 300.0000 0000000   0.0000 300.0000  3.95927803    19
CTC1_L_00637011-07
1 10106U 26310EA  26075.70039352  .00000000  00000+0  00000-0 0  9998
2 10106  70.0000 300.0000 0000000   0.0000 336.0000  3.95927803    19
CTC1_L_00637011-08
1 10107U 24592JO  26075.70039352  .00000000  00000+0  00000-0 0  9999
2 10107  70.0000 300.0000 0000000   0.0000  12.0000  3.95927803    11
CTC1_L_00637011-09
1 10108U 22837NM  26075.70039352  .00000000  00000+0  00000-0 0  9990
2 10108  70.0000 300.0000 0000000   0.0000  48.0000  3.95927803    11
CTC1_L_00637011-10
1 10109U 22535A   26075.70039352  .00000000  00000+0  00000-0 0  9996
2 10109  70.0000 300.0000 0000000   0.0000  84.0000  3.95927803    12
CTC1_L_00637012-01
1 10110U 23832ML  26075.70039352  .00000000  00000+0  00000-0 0  9999
2 10110  70.0000 330.0000 0000000   0.0000 132.0000  3.95927803    11
CTC1_L_00637012-02
1 10111U 23144F   26075.70039352  .00000000  00000+0  00000-0 0  9996
2 10111  70.0000 330.0000 0000000   0.0000 168.0000  3.95927803    11
CTC1_L_00637012-03
1 10112U 24036WJ  26075.70039352  .00000000  00000+0  00000-0 0  9998
2 10112  70.0000 330.0000 0000000   0.0000 204.0000  3.95927803    13
CTC1_L_00637012-04
1 10113U 25781RT  26075.70039352  .00000000  00000+0  00000-0 0  9997
2 10113  70.0000 330.0000 0000000   0.0000 240.0000  3.95927803    14
CTC1_L_00637012-05
1 10114U 23997VP  26075.70039352  .00000000  00000+0  00000-0 0  9995
2 10114  70.0000 330.0000 0000000   0.0000 276.0000  3.95927803    14
CTC1_L_00637012-06
1 10115U 22170AJ  26075.70039352  .00000000  00000+0  00000-0 0  9998
2 10115  70.0000 330.0000 0000000   0.0000 312.0000  3.95927803    16
CTC1_L_00637012-07
1 10116U 26905VK  26075.70039352  .00000000  00000+0  00000-0 0  9999
2 10116  70.0000 330.0000 0000000   0.0000 348.0000  3.95927803    16
CTC1_L_00637012-08
1 10117U 26370SA  26075.70039352  .00000000  00000+0  00000-0 0  9996
2 10117  70.0000 330.0000 0000000   0.0000  24.0000  3.95927803    18
CTC1_L_00637012-09
1 10118U 23274LG  26075.70039352  .00000000  00000+0  00000-0 0  9997
2 10118  70.0000 330.0000 0000000   0.0000  60.0000  3.95927803    19
CTC1_L_00637012-10
1 10119U 22620DV  26075.70039352  .00000000  00000+0  00000-0 0  9992
2 10119  70.0000 330.0000 0000000   0.0000  96.0000  3.95927803    19
